[{"OBJECT_NAME":"STARLINK-32692","OBJECT_ID":"2024-249P","EPOCH":"2026-03-09T23:10:40.068192","MEAN_MOTION":15.2760041,"ECCENTRICITY":0.00015752,"INCLINATION":43.0004,"RA_OF_ASC_NODE":320.4789,"ARG_OF_PERICENTER":273.8447,"MEAN_ANOMALY":86.2225,"EPHEMERIS_TYPE":0,"CLASSIFICATION_TYPE":"U","NORAD_CAT_ID":62422,"ELEMENT_SET_NO":999,"REV_AT_EPOCH":6776,"BSTAR":0.0013680124,"MEAN_MOTION_DOT":0.00037598,"MEAN_MOTION_DDOT":0},{"OBJECT_NAME":"PEGASUS R\/B","OBJECT_ID":"2006-008D","EPOCH":"2026-03-09T19:52:27.636960","MEAN_MOTION":12.3450933,"ECCENTRICITY":0.15655654,"INCLINATION":105.501,"RA_OF_ASC_NODE":149.9277,"ARG_OF_PERICENTER":6.1273,"MEAN_ANOMALY":355.6706,"EPHEMERIS_TYPE":0,"CLASSIFICATION_TYPE":"U","NORAD_CAT_ID":28983,"ELEMENT_SET_NO":999,"REV_AT_EPOCH":81445,"BSTAR":0.00096837459,"MEAN_MOTION_DOT":0.00029646,"MEAN_MOTION_DDOT":3.226784e-6}]
